NORAD_CAT_ID,OBJECT_NAME,OBJECT_TYPE,EPOCH,MEAN_MOTION,ECCENTRICITY,INCLINATION,RA_OF_ASC_NODE,ARG_OF_PERICENTER,MEAN_ANOMALY,BSTAR,MEAN_MOTION_DOT,MEAN_MOTION_DDOT,TLE_LINE0,TLE_LINE1,TLE_LINE2,SEMIMAJOR_AXIS,PERIOD,APOGEE,PERIGEE,DECAYED
50204.0,STARLINK-3254,PAYLOAD,2024-01-13 11:03:25,15.08839998,0.0001115,53.2157,168.6506,94.3988,265.7131,0.00015926,2.248e-05,0.0,0 STARLINK-3254,1 50204U 21125BA  24013.46071419  .00002248  00000-0  15926-3 0  9996,2 50204  53.2157 168.6506 0001115  94.3988 265.7131 15.08839998114963,6917.88,95.438,540.517,538.974,0.0
50204.0,STARLINK-3254,PAYLOAD,2024-01-13 14:14:11,15.08842545,0.0001142,53.2158,168.0559,100.688,259.424,0.00018455,2.651e-05,0.0,0 STARLINK-3254,1 50204U 21125BA  24013.59319287  .00002651  00000-0  18455-3 0  9996,2 50204  53.2158 168.0559 0001142 100.6880 259.4240 15.08842545118112,6917.873,95.437,540.528,538.948,0.0
50204.0,STARLINK-3254,PAYLOAD,2024-01-14 14:04:58,15.08840566,0.0001364,53.2175,163.596,108.574,251.54,2.0363e-05,3.6e-07,0.0,0 STARLINK-3254,1 50204U 21125BA  24014.58679308  .00000036  00000-0  20363-4 0  9996,2 50204  53.2175 163.5960 0001364 108.5740 251.5400 15.08840566118263,6917.879,95.438,540.687,538.8,0.0
50204.0,STARLINK-3254,PAYLOAD,2024-01-14 17:15:45,15.08846055,0.0001391,53.2174,163.0012,62.6221,297.4913,0.00010155,1.329e-05,0.0,0 STARLINK-3254,1 50204U 21125BA  24014.71927419  .00001329  00000-0  10155-3 0  9993,2 50204  53.2174 163.0012 0001391  62.6221 297.4913 15.08846055115151,6917.862,95.437,540.689,538.765,0.0
50204.0,STARLINK-3254,PAYLOAD,2024-01-15 09:09:36,15.08836918,0.0001293,53.2177,160.0308,76.5411,283.5725,-2.9274e-06,-3.34e-06,0.0,0 STARLINK-3254,1 50204U 21125BA  24015.38167788 -.00000334  00000-0 -29274-5 0  9993,2 50204  53.2177 160.0308 0001293  76.5411 283.5725 15.08836918115250,6917.89,95.438,540.649,538.86,0.0
50204.0,STARLINK-3254,PAYLOAD,2024-01-15 13:55:46,15.08835281,0.0001083,53.2156,159.1349,87.843,272.2686,-3.2597e-05,-8.06e-06,0.0,0 STARLINK-3254,1 50204U 21125BA  24015.58039822 -.00000806  00000-0 -32597-4 0  9997,2 50204  53.2156 159.1349 0001083  87.8430 272.2686 15.08835281118418,6917.895,95.438,540.509,539.011,0.0
50204.0,STARLINK-3254,PAYLOAD,2024-01-15 17:06:32,15.08840455,0.0001193,53.2155,158.5398,91.3054,268.8075,2.4054e-05,9.5e-07,0.0,0 STARLINK-3254,1 50204U 21125BA  24015.71287782  .00000095  00000-0  24054-4 0  9999,2 50204  53.2155 158.5398 0001193  91.3054 268.8075 15.08840455118432,6917.879,95.438,540.569,538.919,0.0
50204.0,STARLINK-3254,PAYLOAD,2024-01-16 13:46:33,15.08841764,0.0001658,53.2172,154.6781,64.0185,296.0977,0.00019355,2.794e-05,0.0,0 STARLINK-3254,1 50204U 21125BA  24016.57400184  .00002794  00000-0  19355-3 0  9992,2 50204  53.2172 154.6781 0001658  64.0185 296.0977 15.08841764118564,6917.875,95.437,540.887,538.593,0.0
50204.0,STARLINK-3254,PAYLOAD,2024-01-16 15:21:56,15.0884398,0.0001565,53.2164,154.3793,69.2424,290.8736,0.0002104,3.062e-05,0.0,0 STARLINK-3254,1 50204U 21125BA  24016.64024066  .00003062  00000-0  21040-3 0  9994,2 50204  53.2164 154.3793 0001565  69.2424 290.8736 15.08843980115446,6917.868,95.437,540.816,538.651,0.0
50204.0,STARLINK-3254,PAYLOAD,2024-01-17 12:01:57,15.08839259,0.0001394,53.2164,150.514,67.9832,292.1308,0.00013223,1.817e-05,0.0,0 STARLINK-3254,1 50204U 21125BA  24017.50136419  .00001817  00000-0  13223-3 0  9996,2 50204  53.2164 150.5140 0001394  67.9832 292.1308 15.08839259115576,6917.883,95.438,540.712,538.783,0.0
50204.0,STARLINK-3254,PAYLOAD,2024-01-17 13:37:21,15.08838889,0.0001369,53.2163,150.2164,70.6381,289.4759,0.00010588,1.398e-05,0.0,0 STARLINK-3254,1 50204U 21125BA  24017.56760434  .00001398  00000-0  10588-3 0  9997,2 50204  53.2163 150.2164 0001369  70.6381 289.4759 15.08838889118716,6917.884,95.438,540.696,538.802,0.0
50204.0,STARLINK-3254,PAYLOAD,2024-01-17 15:12:43,15.08846395,0.0001556,53.2161,149.919,80.68,279.4368,-7.6877e-05,-1.512e-05,0.0,0 STARLINK-3254,1 50204U 21125BA  24017.63384024 -.00001512  00000-0 -76877-4 0  9996,2 50204  53.2161 149.9190 0001556  80.6800 279.4368 15.08846395118720,6917.861,95.437,540.802,538.649,0.0
50204.0,STARLINK-3254,PAYLOAD,2024-01-18 13:28:07,15.08845373,0.000142,53.2177,145.7553,94.1933,265.9222,7.052e-05,8.35e-06,0.0,0 STARLINK-3254,1 50204U 21125BA  24018.56119941  .00000835  00000-0  70520-4 0  9997,2 50204  53.2177 145.7553 0001420  94.1933 265.9222 15.08845373115733,6917.864,95.437,540.711,538.747,0.0
50204.0,STARLINK-3254,PAYLOAD,2024-01-18 15:03:30,15.08846898,0.000147,53.2179,145.4578,98.2279,261.888,8.0935e-05,1.001e-05,0.0,0 STARLINK-3254,1 50204U 21125BA  24018.62743763  .00001001  00000-0  80935-4 0  9996,2 50204  53.2179 145.4578 0001470  98.2279 261.8880 15.08846898118878,6917.859,95.437,540.741,538.707,0.0
50204.0,STARLINK-3254,PAYLOAD,2024-01-19 14:54:17,15.08846156,0.0001554,53.2184,140.9994,103.4911,256.6254,0.00013059,1.791e-05,0.0,0 STARLINK-3254,1 50204U 21125BA  24019.62103539  .00001791  00000-0  13059-3 0  9996,2 50204  53.2184 140.9994 0001554 103.4911 256.6254 15.08846156119023,6917.862,95.437,540.802,538.652,0.0
50204.0,STARLINK-3254,PAYLOAD,2024-01-20 11:34:18,15.08839397,0.0001572,53.218,137.1311,106.2903,253.8262,1.9413e-05,2.1e-07,0.0,0 STARLINK-3254,1 50204U 21125BA  24020.48216216  .00000021  00000-0  19413-4 0  9995,2 50204  53.2180 137.1311 0001572 106.2903 253.8262 15.08839397116026,6917.882,95.438,540.835,538.66,0.0
50204.0,STARLINK-3254,PAYLOAD,2024-01-20 13:09:42,15.08838115,0.0001564,53.2188,136.8354,100.5541,259.5628,2.4596e-07,-2.84e-06,0.0,0 STARLINK-3254,1 50204U 21125BA  24020.54840376 -.00000284  00000-0  24596-6 0  9994,2 50204  53.2188 136.8354 0001564 100.5541 259.5628 15.08838115119167,6917.886,95.438,540.833,538.669,0.0
50204.0,STARLINK-3254,PAYLOAD,2024-01-21 13:00:28,15.08842047,0.0001448,53.2178,132.3731,93.8563,266.2595,2.1698e-05,5.7e-07,0.0,0 STARLINK-3254,1 50204U 21125BA  24021.54200175  .00000057  00000-0  21698-4 0  9997,2 50204  53.2178 132.3731 0001448  93.8563 266.2595 15.08842047116181,6917.874,95.437,540.741,538.737,0.0
50204.0,STARLINK-3254,PAYLOAD,2024-01-21 14:35:51,15.08845116,0.0001513,53.2182,132.0761,97.8958,262.2206,5.0482e-05,5.16e-06,0.0,0 STARLINK-3254,1 50204U 21125BA  24021.60823899  .00000516  00000-0  50482-4 0  9991,2 50204  53.2182 132.0761 0001513  97.8958 262.2206 15.08845116119325,6917.865,95.437,540.776,538.683,0.0
50204.0,STARLINK-3254,PAYLOAD,2024-01-22 06:29:43,15.08838546,0.0001636,53.2186,129.1035,102.7862,257.3313,0.0001092,1.45e-05,0.0,0 STARLINK-3254,1 50204U 21125BA  24022.27064211  .00001450  00000-0  10920-3 0  9990,2 50204  53.2186 129.1035 0001636 102.7862 257.3313 15.08838546119420,6917.885,95.438,540.882,538.618,0.0
50204.0,STARLINK-3254,PAYLOAD,2024-01-22 14:26:39,15.08839385,0.000182,53.2188,127.6158,61.7053,298.4122,7.4657e-05,9e-06,0.0,0 STARLINK-3254,1 50204U 21125BA  24022.60184606  .00000900  00000-0  74657-4 0  9995,2 50204  53.2188 127.6158 0001820  61.7053 298.4122 15.08839385116346,6917.882,95.438,541.006,538.488,0.0
50204.0,STARLINK-3254,PAYLOAD,2024-01-23 14:17:26,15.08848407,0.0002041,53.2188,123.1556,52.542,307.5758,0.00010912,1.449e-05,0.0,0 STARLINK-3254,1 50204U 21125BA  24023.59544100  .00001449  00000-0  10912-3 0  9995,2 50204  53.2188 123.1556 0002041  52.5420 307.5758 15.08848407119627,6917.855,95.437,541.132,538.308,0.0
50204.0,STARLINK-3254,PAYLOAD,2024-01-24 10:57:27,15.08836327,0.0001696,53.2185,119.2894,60.7284,299.3877,2.6857e-05,1.39e-06,0.0,0 STARLINK-3254,1 50204U 21125BA  24024.45657118  .00000139  00000-0  26857-4 0  9996,2 50204  53.2185 119.2894 0001696  60.7284 299.3877 15.08836327116624,6917.892,95.438,540.93,538.583,0.0
50204.0,STARLINK-3254,PAYLOAD,2024-01-24 12:32:50,15.08837228,0.0001882,53.2185,118.9921,60.5446,299.5734,3.6077e-05,2.86e-06,0.0,0 STARLINK-3254,1 50204U 21125BA  24024.52281124  .00000286  00000-0  36077-4 0  9992,2 50204  53.2185 118.9921 0001882  60.5446 299.5734 15.08837228119769,6917.889,95.438,541.056,538.452,0.0
50204.0,STARLINK-3254,PAYLOAD,2024-01-25 12:23:38,15.08847463,0.0001568,53.218,114.5321,85.5368,274.5803,2.8418e-05,1.64e-06,0.0,0 STARLINK-3254,1 50204U 21125BA  24025.51641379  .00000164  00000-0  28418-4 0  9999,2 50204  53.2180 114.5321 0001568  85.5368 274.5803 15.08847463116782,6917.858,95.437,540.807,538.638,0.0
50204.0,STARLINK-3254,PAYLOAD,2024-01-26 10:39:00,15.08858386,0.0001607,53.2176,110.3679,65.9362,294.1798,0.00027787,4.139e-05,0.0,0 STARLINK-3254,1 50204U 21125BA  24026.44375745  .00004139  00000-0  27787-3 0  9996,2 50204  53.2176 110.3679 0001607  65.9362 294.1798 15.08858386116920,6917.824,95.436,540.801,538.577,0.0
50204.0,STARLINK-3254,PAYLOAD,2024-01-26 12:14:23,15.08864762,0.0001667,53.219,110.0716,95.8001,264.3181,0.00038517,5.851e-05,0.0,0 STARLINK-3254,1 50204U 21125BA  24026.50999347  .00005851  00000-0  38517-3 0  9998,2 50204  53.2190 110.0716 0001667  95.8001 264.3181 15.08864762120063,6917.805,95.436,540.823,538.517,0.0
50204.0,STARLINK-3254,PAYLOAD,2024-01-27 12:05:11,15.08848559,0.0001396,53.2166,105.6102,101.3827,258.7322,-6.1282e-05,-1.263e-05,0.0,0 STARLINK-3254,1 50204U 21125BA  24027.50360924 -.00001263  00000-0 -61282-4 0  9993,2 50204  53.2166 105.6102 0001396 101.3827 258.7322 15.08848559117081,6917.854,95.437,540.685,538.753,0.0
50204.0,STARLINK-3254,PAYLOAD,2024-01-28 05:34:26,15.08830991,0.0002055,53.2172,102.3371,122.5397,237.5793,-5.8611e-05,-1.221e-05,0.0,0 STARLINK-3254,1 50204U 21125BA  24028.23225497 -.00001221  00000-0 -58611-4 0  9995,2 50204  53.2172 102.3371 0002055 122.5397 237.5793 15.08830991117190,6917.908,95.438,541.195,538.351,0.0
50204.0,STARLINK-3254,PAYLOAD,2024-01-28 10:20:36,15.08847329,0.0001586,53.2176,101.4462,110.3446,249.7716,-0.00020303,-3.518e-05,0.0,0 STARLINK-3254,1 50204U 21125BA  24028.43097617 -.00003518  00000-0 -20303-3 0  9995,2 50204  53.2176 101.4462 0001586 110.3446 249.7716 15.08847329120358,6917.858,95.437,540.82,538.626,0.0
